[{"OBJECT_NAME":"STARLINK-34977","OBJECT_ID":"2025-179L","EPOCH":"2026-03-09T16:02:19.936320","MEAN_MOTION":15.05645126,"ECCENTRICITY":2.385e-5,"INCLINATION":97.6037,"RA_OF_ASC_NODE":112.9186,"ARG_OF_PERICENTER":77.8914,"MEAN_ANOMALY":282.2339,"EPHEMERIS_TYPE":0,"CLASSIFICATION_TYPE":"U","NORAD_CAT_ID":65245,"ELEMENT_SET_NO":999,"REV_AT_EPOCH":3178,"BSTAR":2.4280506e-5,"MEAN_MOTION_DOT":2.9e-6,"MEAN_MOTION_DDOT":0},{"OBJECT_NAME":"COSMOS 2251 DEB","OBJECT_ID":"1993-036AL","EPOCH":"2026-03-09T15:08:47.217120","MEAN_MOTION":15.1034549,"ECCENTRICITY":0.0030621,"INCLINATION":74.0303,"RA_OF_ASC_NODE":257.926,"ARG_OF_PERICENTER":317.2462,"MEAN_ANOMALY":110.0671,"EPHEMERIS_TYPE":0,"CLASSIFICATION_TYPE":"U","NORAD_CAT_ID":33795,"ELEMENT_SET_NO":999,"REV_AT_EPOCH":91331,"BSTAR":0.001367,"MEAN_MOTION_DOT":0.00022707,"MEAN_MOTION_DDOT":0}]
